GLOBALSTAR M067 [+]     
1 32263U 07048A   24044.68909215 -.00000065  00000+0  24015-3 0  9995
2 32263  51.9746  28.2022 0000971  29.0962 141.7503 12.40638089748721
GLOBALSTAR M070 [+]     
1 32264U 07048B   24044.81501720 -.00000068  00000+0  20171-3 0  9992
2 32264  51.9732 179.2881 0001246 106.7320  57.5408 12.62286493751863
GLOBALSTAR M066 [+]     
1 32265U 07048C   24044.77519510 -.00000089  00000+0  80656-4 0  9992
2 32265  51.9689  41.4201 0000489 276.2464 255.6858 12.62259975754128
GLOBALSTAR M068 [-]     
1 32266U 07048D   24044.83401403 -.00000001  00000+0  57232-3 0  9998
2 32266  51.9913 353.9124 0001014 116.8278 261.0605 12.62779617755730
GLOBALSTAR M079 [+]     
1 37188U 10054A   24044.84251588 -.00000090  00000+0  78331-4 0  9997
2 37188  52.0019 189.4286 0000728  97.1862  67.4405 12.62266522614656
GLOBALSTAR M074 [+]     
1 37189U 10054B   24044.86916742 -.00000091  00000+0  72511-4 0  9995
2 37189  51.9999 188.7463 0000984 102.5329  62.8911 12.62265307615263
GLOBALSTAR M076 [+]     
1 37190U 10054C   24044.81660832 -.00000092  00000+0  65898-4 0  9999
2 37190  52.0009 189.0356 0001042  70.9622  94.1502 12.62274745614971
GLOBALSTAR M077 [+]     
1 37191U 10054D   24044.72391222 -.00000070  00000+0  18979-3 0  9997
2 37191  52.0067 146.0324 0000880 111.9031  52.0591 12.62269474615338
